GLOBALSTAR M094 [+]     
1 39074U 13005C   23363.33838743 -.00000092  00000+0  63086-4 0  9996
2 39074  51.9979  13.6183 0000350 136.2591 223.8303 12.62270689504702
GLOBALSTAR M078 [+]     
1 39076U 13005E   23363.72117161 -.00000123  00000+0 -10556-3 0  9994
2 39076  51.9850 145.7866 0001819  88.5542 271.5533 12.62258517502296
GLOBALSTAR M087 [+]     
1 52888U 22064A   23363.51574485 -.00000089  00000+0  75224-4 0  9992
2 52888  51.9764  83.4981 0008815 291.8101  68.1861 13.37561189 74681
